{
  "type": "FeatureCollection",
  "features": [
    {
      "type": "Feature",
      "properties": {
        "norad_id": 66534,
        "name": "STARLINK-35976",
        "group": "last-30-days",
        "lat": 10.860193584852523,
        "lon": -108.88302478699876,
        "alt_km": 386.59527611690555,
        "timestamp": "2025-12-07T18:50:15.514261+00:00",
        "meta_object_name": "STARLINK-35976",
        "meta_object_id": "2025-265U",
        "meta_epoch": "2025-12-07T06:00:04.999968",
        "meta_mean_motion": 15.62253127,
        "meta_eccentricity": 0.00015244,
        "meta_inclination": 43.0006,
        "meta_ra_of_asc_node": 86.1766,
        "meta_arg_of_pericenter": 280.7323,
        "meta_mean_anomaly": 113.7224,
        "meta_ephemeris_type": 0,
        "meta_classification_type": "U",
        "meta_norad_cat_id": 66534,
        "meta_element_set_no": 999,
        "meta_rev_at_epoch": 411,
        "meta_bstar": -0.02451911,
        "meta_mean_motion_dot": -0.01958294,
        "meta_mean_motion_ddot": 0,
        "tle_line1": "1 66534U 25265U   25341.25005787 -.01958294  00000+0 -24519-1 0  9994",
        "tle_line2": "2 66534  43.0006  86.1766 0001524 280.7323 113.7224 15.62253127  4110"
      },
      "geometry": {
        "type": "Point",
        "coordinates": [
          -108.88302478699876,
          10.860193584852523
        ]
      }
    },
    {
      "type": "Feature",
      "properties": {
        "norad_id": 66535,
        "name": "STARLINK-35514",
        "group": "last-30-days",
        "lat": 9.578049996571474,
        "lon": -107.43989900213616,
        "alt_km": 386.73730511647136,
        "timestamp": "2025-12-07T18:50:15.514274+00:00",
        "meta_object_name": "STARLINK-35514",
        "meta_object_id": "2025-265V",
        "meta_epoch": "2025-12-07T06:00:04.999968",
        "meta_mean_motion": 15.62255594,
        "meta_eccentricity": 0.0001506,
        "meta_inclination": 43.0007,
        "meta_ra_of_asc_node": 86.1716,
        "meta_arg_of_pericenter": 280.0486,
        "meta_mean_anomaly": 116.3244,
        "meta_ephemeris_type": 0,
        "meta_classification_type": "U",
        "meta_norad_cat_id": 66535,
        "meta_element_set_no": 999,
        "meta_rev_at_epoch": 411,
        "meta_bstar": -0.024591969,
        "meta_mean_motion_dot": -0.01963566,
        "meta_mean_motion_ddot": 0,
        "tle_line1": "1 66535U 25265V   25341.25005787 -.01963566  00000+0 -24592-1 0  9994",
        "tle_line2": "2 66535  43.0007  86.1716 0001506 280.0486 116.3244 15.62255594  4111"
      },
      "geometry": {
        "type": "Point",
        "coordinates": [
          -107.43989900213616,
          9.578049996571474
        ]
      }
    },
    {
      "type": "Feature",
      "properties": {
        "norad_id": 66536,
        "name": "STARLINK-35640",
        "group": "last-30-days",
        "lat": 8.288674076541882,
        "lon": -106.00597434722931,
        "alt_km": 386.8731029331284,
        "timestamp": "2025-12-07T18:50:15.514284+00:00",
        "meta_object_name": "STARLINK-35640",
        "meta_object_id": "2025-265W",
        "meta_epoch": "2025-12-07T06:00:04.999968",
        "meta_mean_motion": 15.6225065,
        "meta_eccentricity": 0.0001483,
        "meta_inclination": 43.0006,
        "meta_ra_of_asc_node": 86.167,
        "meta_arg_of_pericenter": 280.4226,
        "meta_mean_anomaly": 117.8678,
        "meta_ephemeris_type": 0,
        "meta_classification_type": "U",
        "meta_norad_cat_id": 66536,
        "meta_element_set_no": 999,
        "meta_rev_at_epoch": 409,
        "meta_bstar": -0.024481809,
        "meta_mean_motion_dot": -0.01955474,
        "meta_mean_motion_ddot": 0,
        "tle_line1": "1 66536U 25265W   25341.25005787 -.01955474  00000+0 -24482-1 0  9992",
        "tle_line2": "2 66536  43.0006  86.1670 0001483 280.4226 117.8678 15.62250650  4092"
      },
      "geometry": {
        "type": "Point",
        "coordinates": [
          -106.00597434722931,
          8.288674076541882
        ]
      }
    },
    {
      "type": "Feature",
      "properties": {
        "norad_id": 66537,
        "name": "STARLINK-35582",
        "group": "last-30-days",
        "lat": 6.99534924971999,
        "lon": -104.58282066216498,
        "alt_km": 386.99000408281427,
        "timestamp": "2025-12-07T18:50:15.514298+00:00",
        "meta_object_name": "STARLINK-35582",
        "meta_object_id": "2025-265X",
        "meta_epoch": "2025-12-07T06:00:04.999968",
        "meta_mean_motion": 15.6225237,
        "meta_eccentricity": 0.00015262,
        "meta_inclination": 43.0009,
        "meta_ra_of_asc_node": 86.1622,
        "meta_arg_of_pericenter": 278.7539,
        "meta_mean_anomaly": 121.4518,
        "meta_ephemeris_type": 0,
        "meta_classification_type": "U",
        "meta_norad_cat_id": 66537,
        "meta_element_set_no": 999,
        "meta_rev_at_epoch": 411,
        "meta_bstar": -0.024492469,
        "meta_mean_motion_dot": -0.01956371,
        "meta_mean_motion_ddot": 0,
        "tle_line1": "1 66537U 25265X   25341.25005787 -.01956371  00000+0 -24492-1 0  9991",
        "tle_line2": "2 66537  43.0009  86.1622 0001526 278.7539 121.4518 15.62252370  4116"
      },
      "geometry": {
        "type": "Point",
        "coordinates": [
          -104.58282066216498,
          6.99534924971999
        ]
      }
    },
    {
      "type": "Feature",
      "properties": {
        "norad_id": 66538,
        "name": "STARLINK-35577",
        "group": "last-30-days",
        "lat": 5.697729526789997,
        "lon": -103.16820474394237,
        "alt_km": 387.1549759127729,
        "timestamp": "2025-12-07T18:50:15.514331+00:00",
        "meta_object_name": "STARLINK-35577",
        "meta_object_id": "2025-265Y",
        "meta_epoch": "2025-12-07T06:00:04.999968",
        "meta_mean_motion": 15.6225631,
        "meta_eccentricity": 0.00015241,
        "meta_inclination": 43.0011,
        "meta_ra_of_asc_node": 86.1568,
        "meta_arg_of_pericenter": 279.4302,
        "meta_mean_anomaly": 122.6902,
        "meta_ephemeris_type": 0,
        "meta_classification_type": "U",
        "meta_norad_cat_id": 66538,
        "meta_element_set_no": 999,
        "meta_rev_at_epoch": 411,
        "meta_bstar": -0.024551794,
        "meta_mean_motion_dot": -0.01960806,
        "meta_mean_motion_ddot": 0,
        "tle_line1": "1 66538U 25265Y   25341.25005787 -.01960806  00000+0 -24552-1 0  9997",
        "tle_line2": "2 66538  43.0011  86.1568 0001524 279.4302 122.6902 15.62256310  4111"
      },
      "geometry": {
        "type": "Point",
        "coordinates": [
          -103.16820474394237,
          5.697729526789997
        ]
      }
    },
    {
      "type": "Feature",
      "properties": {
        "norad_id": 66539,
        "name": "STARLINK-35697",
        "group": "last-30-days",
        "lat": 4.395914112890069,
        "lon": -101.75899923399484,
        "alt_km": 387.2288748437786,
        "timestamp": "2025-12-07T18:50:15.514343+00:00",
        "meta_object_name": "STARLINK-35697",
        "meta_object_id": "2025-265Z",
        "meta_epoch": "2025-12-07T06:00:04.999968",
        "meta_mean_motion": 15.62254325,
        "meta_eccentricity": 0.00014499,
        "meta_inclination": 43.0009,
        "meta_ra_of_asc_node": 86.1517,
        "meta_arg_of_pericenter": 277.2804,
        "meta_mean_anomaly": 126.7607,
        "meta_ephemeris_type": 0,
        "meta_classification_type": "U",
        "meta_norad_cat_id": 66539,
        "meta_element_set_no": 999,
        "meta_rev_at_epoch": 411,
        "meta_bstar": -0.02454908,
        "meta_mean_motion_dot": -0.01960426,
        "meta_mean_motion_ddot": 0,
        "tle_line1": "1 66539U 25265Z   25341.25005787 -.01960426  00000+0 -24549-1 0  9992",
        "tle_line2": "2 66539  43.0009  86.1517 0001449 277.2804 126.7607 15.62254325  4113"
      },
      "geometry": {
        "type": "Point",
        "coordinates": [
          -101.75899923399484,
          4.395914112890069
        ]
      }
    },
    {
      "type": "Feature",
      "properties": {
        "norad_id": 66540,
        "name": "STARLINK-35818",
        "group": "last-30-days",
        "lat": 3.0921832851117537,
        "lon": -100.35493937169723,
        "alt_km": 387.4123798484716,
        "timestamp": "2025-12-07T18:50:15.514355+00:00",
        "meta_object_name": "STARLINK-35818",
        "meta_object_id": "2025-265AA",
        "meta_epoch": "2025-12-07T06:00:04.999968",
        "meta_mean_motion": 15.62254777,
        "meta_eccentricity": 0.00014592,
        "meta_inclination": 43.0006,
        "meta_ra_of_asc_node": 86.1472,
        "meta_arg_of_pericenter": 279.0167,
        "meta_mean_anomaly": 126.9404,
        "meta_ephemeris_type": 0,
        "meta_classification_type": "U",
        "meta_norad_cat_id": 66540,
        "meta_element_set_no": 999,
        "meta_rev_at_epoch": 411,
        "meta_bstar": -0.024550704,
        "meta_mean_motion_dot": -0.01960578,
        "meta_mean_motion_ddot": 0,
        "tle_line1": "1 66540U 25265AA  25341.25005787 -.01960578  00000+0 -24551-1 0  9995",
        "tle_line2": "2 66540  43.0006  86.1472 0001459 279.0167 126.9404 15.62254777  4113"
      },
      "geometry": {
        "type": "Point",
        "coordinates": [
          -100.35493937169723,
          3.0921832851117537
        ]
      }
    }
  ]
}